STARLINK-4518           
1 53550U 22101Z   22258.91667824 -.00059847  00000+0 -42387-3 0  9997
2 53550  53.2167  20.4865 0002648  18.8395 112.7777 15.73258021  4294
STARLINK-4514           
1 53551U 22101AA  22258.91667824 -.00292954  00000+0 -21425-2 0  9995
2 53551  53.2169  20.4885 0002641  19.1230 110.6808 15.73342933  4292
STARLINK-4495           
1 53552U 22101AB  22258.91667824 -.00063022  00000+0 -44699-3 0  9997
2 53552  53.2170  20.4849 0002697  18.1355 115.2986 15.73246075  4291
STARLINK-4501           
1 53553U 22101AC  22258.91667824 -.00055248  00000+0 -39064-3 0  9999
2 53553  53.2169  20.4862 0002582  19.1180 113.0478 15.73264640  4295
STARLINK-4506           
1 53554U 22101AD  22258.91667824 -.00039872  00000+0 -28049-3 0  9996
2 53554  53.2165  20.4804 0002359  25.1126 109.5528 15.73239481  4298
STARLINK-4504           
1 53555U 22101AE  22258.91667824 -.00064504  00000+0 -45747-3 0  9991
2 53555  53.2165  20.4826 0002561  18.5147 114.3260 15.73257561  4293
STARLINK-4505           
1 53556U 22101AF  22258.91667824 -.00057234  00000+0 -40517-3 0  9994
2 53556  53.2165  20.4788 0002610  15.9049 119.8906 15.73250998  4292
STARLINK-4502           
1 53557U 22101AG  22258.91667824 -.00200458  00000+0 -14516-2 0  9992
2 53557  53.2166  20.4795 0002322  21.6514 112.3075 15.73299865  4294
STARLINK-4494           
1 53558U 22101AH  22258.91667824 -.00053510  00000+0 -37821-3 0  9993
2 53558  53.2168  20.4779 0002393  19.7582 117.2124 15.73260563  4292
STARLINK-4508           
1 53559U 22101AJ  22258.91667824  .00086110  00000+0  61324-3 0  9999
2 53559  53.2168  20.4747 0002240  30.0444 105.1060 15.73139290  4299
STARLINK-4564           
1 53560U 22101AK  22258.91667824  .00004536  00000+0  36708-4 0  9992
2 53560  53.2164  20.4736 0002548  17.6012 120.5519 15.73213861  4295
STARLINK-4563           
1 53561U 22101AL  22258.91667824 -.00040308  00000+0 -28379-3 0  9996
2 53561  53.2165  20.4768 0002635  20.0332 116.2966 15.73224086  4291
STARLINK-4565           
1 53562U 22101AM  22258.91667824 -.00051214  00000+0 -36195-3 0  9990
2 53562  53.2164  20.4712 0002608  19.5000 119.8485 15.73243293  4291
STARLINK-4561           
1 53563U 22101AN  22258.91667824 -.00119881  00000+0 -85887-3 0  9998
2 53563  53.2165  20.4754 0002541  19.6858 117.8312 15.73278334  4298
STARLINK-4577           
1 53564U 22101AP  22258.91667824 -.00075695  00000+0 -53843-3 0  9990
2 53564  53.2162  20.4677 0002458  21.8771 118.6558 15.73253467  4297
STARLINK-4575           
1 53565U 22101AQ  22258.91667824  .00030521  00000+0  22117-3 0  9998
2 53565  53.2165  20.4719 0002466  23.0088 115.7645 15.73189943  4294
STARLINK-4576           
1 53566U 22101AR  22258.91667824  .00028752  00000+0  20859-3 0  9993
2 53566  53.2163  20.4670 0002562  18.2580 123.4983 15.73196475  4298
STARLINK-4585           
1 53567U 22101AS  22258.91667824 -.00047304  00000+0 -33388-3 0  9991
2 53567  53.2166  20.4709 0002595  22.2173 117.7286 15.73239025  4295
STARLINK-4583           
1 53568U 22101AT  22258.91667824 -.00076049  00000+0 -54102-3 0  9997
2 53568  53.2162  20.4630 0002666  14.5146 129.0079 15.73251145  4291
STARLINK-4582           
1 53569U 22101AU  22258.91667824 -.00077847  00000+0 -55438-3 0  9998
2 53569  53.2163  20.4673 0002656  18.8344 122.3316 15.73236541  4299
STARLINK-4550           
1 53570U 22101AV  22258.91667824 -.00065878  00000+0 -46732-3 0  9998
2 53570  53.2163  20.4646 0002570  24.1065 118.7564 15.73260823  4290
STARLINK-4584           
1 53571U 22101AW  22258.91667824 -.00077711  00000+0 -55271-3 0  9996
2 53571  53.2163  20.4645 0002490  23.2348 119.0894 15.73266266  4292
STARLINK-4555           
1 53572U 22101AX  22258.91667824 -.00007057  00000+0 -45841-4 0  9996
2 53572  53.2165  20.4598 0002894  19.4057 125.9034 15.73218046  4299
STARLINK-4547           
1 53573U 22101AY  22258.91667824 -.00049454  00000+0 -34931-3 0  9991
2 53573  53.2163  20.4614 0002677  19.6672 124.4583 15.73240991  4298
STARLINK-4559           
1 53574U 22101AZ  22258.91667824 -.00062017  00000+0 -43965-3 0  9999
2 53574  53.2166  20.4591 0002665  14.8593 131.6567 15.73250864  4294
STARLINK-4551           
1 53575U 22101BA  22258.91667824 -.00067076  00000+0 -47627-3 0  9999
2 53575  53.2163  20.4607 0002616  13.9678 130.7782 15.73245638  1301
STARLINK-4581           
1 53576U 22101BB  22258.91667824 -.00055129  00000+0 -39015-3 0  9998
2 53576  53.2159  20.4545 0002739  16.7036 130.4091 15.73241978  4297
STARLINK-4553           
1 53577U 22101BC  22258.91667824 -.00089573  00000+0 -63848-3 0  9990
2 53577  53.2163  20.4574 0002641  16.3837 129.5136 15.73271881  4297
STARLINK-4556           
1 53578U 22101BD  22258.91667824 -.00067676  00000+0 -48027-3 0  9993
2 53578  53.2162  20.4554 0002786  19.7563 127.8768 15.73260830  4292
STARLINK-4580           
1 53579U 22101BE  22259.00001157 -.00047515  00000+0 -33551-3 0  9992
2 53579  53.2164  20.0404 0002591  12.9512 247.5930 15.73231385  4304
CHUANGXIN 16 (CX-16)    
1 53586U 22102A   22258.71137548  .00001961  00000+0  17735-3 0  9991
2 53586  28.9995 216.6837 0004887 133.9652 226.1234 14.91694003  3538
BEIJING-3B              
1 53587U 22103A   22258.77392287  .00001290  00000+0  14896-3 0  9992
2 53587  97.9401 327.3990 0014173 184.0067 176.1032 14.87316425  3379
STARLINK-4691           
1 53588U 22104A   22259.00001157 -.01157225  00000+0 -11525-1 0  9991
2 53588  53.2171 194.6689 0001091 104.6734 335.8410 15.67580201  3001
STARLINK-4673           
1 53589U 22104B   22259.00001157 -.01185826  00000+0 -11783-1 0  9996
2 53589  53.2171 194.6605 0001056  98.2390 346.0649 15.67698617  3006
STARLINK-4689           
1 53590U 22104C   22259.00001157 -.01157736  00000+0 -11521-1 0  9997
2 53590  53.2170 194.6672 0001169 112.6352 328.6404 15.67599864  3004
STARLINK-4674           
1 53591U 22104D   22259.00001157 -.01148123  00000+0 -11410-1 0  9995
2 53591  53.2170 194.6651 0001060 104.7443 337.2950 15.67612423  3004
STARLINK-4672           
1 53592U 22104E   22259.00001157 -.01149192  00000+0 -11412-1 0  9995
2 53592  53.2171 194.6645 0001119 105.9741 336.8247 15.67632668  3005
STARLINK-4671           
1 53593U 22104F   22259.00001157 -.01137315  00000+0 -11277-1 0  9999
2 53593  53.2170 194.6620 0001140 102.2512 341.3115 15.67643313  3002
STARLINK-4681           
1 53594U 22104G   22259.00001157 -.01151782  00000+0 -11403-1 0  9995
2 53594  53.2170 194.6585 0001085  92.1694 353.6625 15.67712572  3005
STARLINK-4684           
1 53595U 22104H   22259.00001157 -.01155170  00000+0 -11448-1 0  9990
2 53595  53.2170 194.6591 0001097 109.1067 335.9665 15.67695545  3411
STARLINK-4668           
1 53596U 22104J   22259.00001157 -.01155999  00000+0 -11437-1 0  9998
2 53596  53.2169 194.6539 0001160 111.6842 336.1157 15.67737640  3009
STARLINK-4682           
1 53597U 22104K   22259.00001157 -.01151123  00000+0 -11387-1 0  9998
2 53597  53.2170 194.6560 0001079 108.4909 338.0987 15.67731413  3007
STARLINK-4676           
1 53598U 22104L   22259.00001157 -.01188117  00000+0 -11759-1 0  9995
2 53598  53.2171 194.6517 0001069  84.4317   4.8693 15.67800005  3002
STARLINK-4665           
1 53599U 22104M   22259.00001157  .00085310  00000+0  38643-3 0  9997
2 53599  53.2158 193.6828 0001679  48.9775 154.2142 15.83245950  3012
STARLINK-4677           
1 53600U 22104N   22259.00001157 -.01137826  00000+0 -11209-1 0  9990
2 53600  53.2170 194.6479 0001168 102.7779 348.0508 15.67802219  3410
STARLINK-4675           
1 53601U 22104P   22259.00001157 -.01149719  00000+0 -11362-1 0  9995
2 53601  53.2170 194.6522 0001099 110.8746 337.6847 15.67751959  3006
STARLINK-4648           
1 53602U 22104Q   22258.91667824 -.00120182  00000+0 -86264-3 0  9991
2 53602  53.2149 195.0130 0001003 101.1862 260.7379 15.73241953  1302
STARLINK-4692           
1 53603U 22104R   22259.00001157 -.00088590  00000+0 -63223-3 0  9990
2 53603  53.2148 194.6019 0001251  88.1386  25.5542 15.73245135  3007
STARLINK-4690           
1 53604U 22104S   22259.00001157  .00030268  00000+0  21966-3 0  9996
2 53604  53.2158 194.6036 0001359 107.6925   7.4199 15.73161365  3002
STARLINK-4693           
1 53605U 22104T   22259.00001157 -.01137168  00000+0 -11211-1 0  9997
2 53605  53.2169 194.6492 0001170 106.6809 343.3932 15.67782356  3001
STARLINK-4590           
1 53606U 22104U   22259.00001157 -.00110025  00000+0 -78810-3 0  9990
2 53606  53.2147 194.5946 0001077  89.8110  29.2122 15.73250764  3005
STARLINK-4591           
1 53607U 22104V   22259.00001157 -.00076042  00000+0 -54108-3 0  9995
2 53607  53.2148 194.6013 0001051  87.0088  27.7550 15.73252612  3001
STARLINK-4647           
1 53608U 22104W   22259.00001157 -.00121180  00000+0 -86888-3 0  9990
2 53608  53.2146 194.5948 0001319  99.3626  17.8391 15.73269345  3001
STARLINK-4660           
1 53609U 22104X   22259.00001157  .00027953  00000+0  20274-3 0  9999
2 53609  53.2148 194.5980 0001136 112.4179   3.3151 15.73221137  3008
STARLINK-4610           
1 53610U 22104Y   22259.00001157 -.00108242  00000+0 -77471-3 0  9995
2 53610  53.2148 194.5930 0000983 101.8632  16.5612 15.73262514  3002
STARLINK-4650           
1 53611U 22104Z   22259.00001157 -.00055792  00000+0 -39556-3 0  9999
2 53611  53.2145 194.5951 0001230  97.0471  19.5175 15.73210750  3008
STARLINK-4658           
1 53612U 22104AA  22259.00001157  .00028538  00000+0  20739-3 0  9999
2 53612  53.2148 194.5894 0001302 127.6881 352.5473 15.73162450  3007
STARLINK-4655           
1 53613U 22104AB  22259.00001157 -.00021968  00000+0 -15240-3 0  9993
2 53613  53.2146 194.5936 0001039  93.0264  24.7307 15.73217925  3003
STARLINK-4654           
1 53614U 22104AC  22258.12836561  .19379524  12525-4  33242-3 0  9995
2 53614  53.2142 195.4160 0005051 113.4006 347.1697 16.47651389  2908
